STARLINK-35540          
1 66151U 25240F   25315.25002315 -.01915218  00000+0 -26848-1 0  9993
2 66151  53.1592 255.4795 0001398  98.4459 102.8736 15.59503080  3841
STARLINK-35455          
1 66152U 25240G   25315.25002315 -.01916637  00000+0 -26870-1 0  9995
2 66152  53.1591 255.4754 0001315 101.0240 102.2117 15.59504226  3844
STARLINK-34752          
1 66153U 25240H   25315.25002315 -.01919346  00000+0 -26914-1 0  9995
2 66153  53.1590 255.4725 0001226  96.7994 108.3553 15.59504794  3840
STARLINK-34625          
1 66154U 25240J   25315.25002315 -.01920273  00000+0 -26924-1 0  9998
2 66154  53.1589 255.4678 0001387  94.9563 112.1125 15.59507163  3892
STARLINK-35580          
1 66155U 25240K   25315.25002315 -.01907709  00000+0 -26733-1 0  9996
2 66155  53.1592 255.4629 0001414  99.5911 109.3953 15.59499120  3847
STARLINK-35621          
1 66156U 25240L   25315.25002315 -.01920552  00000+0 -26927-1 0  9993
2 66156  53.1595 255.4593 0001391 101.1416 109.7580 15.59508264  3845
STARLINK-35594          
1 66157U 25240M   25315.25002315 -.01913372  00000+0 -26820-1 0  9998
2 66157  53.1592 255.4553 0001302  96.5660 116.2549 15.59502447  3844
STARLINK-35587          
1 66158U 25240N   25315.25002315 -.01912796  00000+0 -26812-1 0  9999
2 66158  53.1591 255.4509 0001237  97.3567 117.3809 15.59502286  3849
STARLINK-35586          
1 66159U 25240P   25315.25002315 -.01920571  00000+0 -26932-1 0  9993
2 66159  53.1592 255.4470 0001225 100.7627 115.8921 15.59505931  3849
STARLINK-35636          
1 66160U 25240Q   25315.25002315 -.01919836  00000+0 -26920-1 0  9994
2 66160  53.1591 255.4385 0001232  98.8747 121.6138 15.59505748  3844
STARLINK-35635          
1 66161U 25240R   25315.25002315 -.01904329  00000+0 -26681-1 0  9990
2 66161  53.1592 255.4424 0001437 100.1098 118.4615 15.59496834  3842
STARLINK-35633          
1 66162U 25240S   25315.25002315 -.00790456  00000+0 -73467-2 0  9999
2 66162  53.1590 255.3604 0001120  91.6646 167.5215 15.69113443  3846
