CCSDS_OMM_VERS = 2.0
CREATION_DATE  = 
ORIGINATOR     = 

OBJECT_NAME    = STARLINK-35540
OBJECT_ID      = 2025-240F
CENTER_NAME    = EARTH
REF_FRAME      = TEME
TIME_SYSTEM    = UTC
MEAN_ELEMENT_THEORY = SGP/SGP4

EPOCH          = 2025-11-11T06:00:02.000160
MEAN_MOTION    = 15.59503080
ECCENTRICITY   = .00013983
INCLINATION    = 53.1592
RA_OF_ASC_NODE = 255.4795
ARG_OF_PERICENTER = 98.4459
MEAN_ANOMALY   = 102.8736

EPHEMERIS_TYPE = 0
CLASSIFICATION_TYPE = U
NORAD_CAT_ID   = 66151
ELEMENT_SET_NO = 999
REV_AT_EPOCH   = 384
BSTAR          = -.26847921E-1
MEAN_MOTION_DOT = -.1915218E-1
MEAN_MOTION_DDOT = 0

CCSDS_OMM_VERS = 2.0
CREATION_DATE  = 
ORIGINATOR     = 

OBJECT_NAME    = STARLINK-35455
OBJECT_ID      = 2025-240G
CENTER_NAME    = EARTH
REF_FRAME      = TEME
TIME_SYSTEM    = UTC
MEAN_ELEMENT_THEORY = SGP/SGP4

EPOCH          = 2025-11-11T06:00:02.000160
MEAN_MOTION    = 15.59504226
ECCENTRICITY   = .00013154
INCLINATION    = 53.1591
RA_OF_ASC_NODE = 255.4754
ARG_OF_PERICENTER = 101.0240
MEAN_ANOMALY   = 102.2117

EPHEMERIS_TYPE = 0
CLASSIFICATION_TYPE = U
NORAD_CAT_ID   = 66152
ELEMENT_SET_NO = 999
REV_AT_EPOCH   = 384
BSTAR          = -.2687017E-1
MEAN_MOTION_DOT = -.1916637E-1
MEAN_MOTION_DDOT = 0

CCSDS_OMM_VERS = 2.0
CREATION_DATE  = 
ORIGINATOR     = 

OBJECT_NAME    = STARLINK-34752
OBJECT_ID      = 2025-240H
CENTER_NAME    = EARTH
REF_FRAME      = TEME
TIME_SYSTEM    = UTC
MEAN_ELEMENT_THEORY = SGP/SGP4

EPOCH          = 2025-11-11T06:00:02.000160
MEAN_MOTION    = 15.59504794
ECCENTRICITY   = .00012262
INCLINATION    = 53.1590
RA_OF_ASC_NODE = 255.4725
ARG_OF_PERICENTER = 96.7994
MEAN_ANOMALY   = 108.3553

EPHEMERIS_TYPE = 0
CLASSIFICATION_TYPE = U
NORAD_CAT_ID   = 66153
ELEMENT_SET_NO = 999
REV_AT_EPOCH   = 384
BSTAR          = -.26913593E-1
MEAN_MOTION_DOT = -.1919346E-1
MEAN_MOTION_DDOT = 0

CCSDS_OMM_VERS = 2.0
CREATION_DATE  = 
ORIGINATOR     = 

OBJECT_NAME    = STARLINK-34625
OBJECT_ID      = 2025-240J
CENTER_NAME    = EARTH
REF_FRAME      = TEME
TIME_SYSTEM    = UTC
MEAN_ELEMENT_THEORY = SGP/SGP4

EPOCH          = 2025-11-11T06:00:02.000160
MEAN_MOTION    = 15.59507163
ECCENTRICITY   = .00013878
INCLINATION    = 53.1589
RA_OF_ASC_NODE = 255.4678
ARG_OF_PERICENTER = 94.9563
MEAN_ANOMALY   = 112.1125

EPHEMERIS_TYPE = 0
CLASSIFICATION_TYPE = U
NORAD_CAT_ID   = 66154
ELEMENT_SET_NO = 999
REV_AT_EPOCH   = 389
BSTAR          = -.26924161E-1
MEAN_MOTION_DOT = -.1920273E-1
MEAN_MOTION_DDOT = 0

CCSDS_OMM_VERS = 2.0
CREATION_DATE  = 
ORIGINATOR     = 

OBJECT_NAME    = STARLINK-35580
OBJECT_ID      = 2025-240K
CENTER_NAME    = EARTH
REF_FRAME      = TEME
TIME_SYSTEM    = UTC
MEAN_ELEMENT_THEORY = SGP/SGP4

EPOCH          = 2025-11-11T06:00:02.000160
MEAN_MOTION    = 15.59499120
ECCENTRICITY   = .00014147
INCLINATION    = 53.1592
RA_OF_ASC_NODE = 255.4629
ARG_OF_PERICENTER = 99.5911
MEAN_ANOMALY   = 109.3953

EPHEMERIS_TYPE = 0
CLASSIFICATION_TYPE = U
NORAD_CAT_ID   = 66155
ELEMENT_SET_NO = 999
REV_AT_EPOCH   = 384
BSTAR          = -.26732545E-1
MEAN_MOTION_DOT = -.1907709E-1
MEAN_MOTION_DDOT = 0

CCSDS_OMM_VERS = 2.0
CREATION_DATE  = 
ORIGINATOR     = 

OBJECT_NAME    = STARLINK-35621
OBJECT_ID      = 2025-240L
CENTER_NAME    = EARTH
REF_FRAME      = TEME
TIME_SYSTEM    = UTC
MEAN_ELEMENT_THEORY = SGP/SGP4

EPOCH          = 2025-11-11T06:00:02.000160
MEAN_MOTION    = 15.59508264
ECCENTRICITY   = .00013915
INCLINATION    = 53.1595
RA_OF_ASC_NODE = 255.4593
ARG_OF_PERICENTER = 101.1416
MEAN_ANOMALY   = 109.7580

EPHEMERIS_TYPE = 0
CLASSIFICATION_TYPE = U
NORAD_CAT_ID   = 66156
ELEMENT_SET_NO = 999
REV_AT_EPOCH   = 384
BSTAR          = -.26927426E-1
MEAN_MOTION_DOT = -.1920552E-1
MEAN_MOTION_DDOT = 0

CCSDS_OMM_VERS = 2.0
CREATION_DATE  = 
ORIGINATOR     = 

OBJECT_NAME    = STARLINK-35594
OBJECT_ID      = 2025-240M
CENTER_NAME    = EARTH
REF_FRAME      = TEME
TIME_SYSTEM    = UTC
MEAN_ELEMENT_THEORY = SGP/SGP4

EPOCH          = 2025-11-11T06:00:02.000160
MEAN_MOTION    = 15.59502447
ECCENTRICITY   = .0001302
INCLINATION    = 53.1592
RA_OF_ASC_NODE = 255.4553
ARG_OF_PERICENTER = 96.5660
MEAN_ANOMALY   = 116.2549

EPHEMERIS_TYPE = 0
CLASSIFICATION_TYPE = U
NORAD_CAT_ID   = 66157
ELEMENT_SET_NO = 999
REV_AT_EPOCH   = 384
BSTAR          = -.26820254E-1
MEAN_MOTION_DOT = -.1913372E-1
MEAN_MOTION_DDOT = 0

CCSDS_OMM_VERS = 2.0
CREATION_DATE  = 
ORIGINATOR     = 

OBJECT_NAME    = STARLINK-35587
OBJECT_ID      = 2025-240N
CENTER_NAME    = EARTH
REF_FRAME      = TEME
TIME_SYSTEM    = UTC
MEAN_ELEMENT_THEORY = SGP/SGP4

EPOCH          = 2025-11-11T06:00:02.000160
MEAN_MOTION    = 15.59502286
ECCENTRICITY   = .00012377
INCLINATION    = 53.1591
RA_OF_ASC_NODE = 255.4509
ARG_OF_PERICENTER = 97.3567
MEAN_ANOMALY   = 117.3809

EPHEMERIS_TYPE = 0
CLASSIFICATION_TYPE = U
NORAD_CAT_ID   = 66158
ELEMENT_SET_NO = 999
REV_AT_EPOCH   = 384
BSTAR          = -.26811947E-1
MEAN_MOTION_DOT = -.1912796E-1
MEAN_MOTION_DDOT = 0

CCSDS_OMM_VERS = 2.0
CREATION_DATE  = 
ORIGINATOR     = 

OBJECT_NAME    = STARLINK-35586
OBJECT_ID      = 2025-240P
CENTER_NAME    = EARTH
REF_FRAME      = TEME
TIME_SYSTEM    = UTC
MEAN_ELEMENT_THEORY = SGP/SGP4

EPOCH          = 2025-11-11T06:00:02.000160
MEAN_MOTION    = 15.59505931
ECCENTRICITY   = .00012256
INCLINATION    = 53.1592
RA_OF_ASC_NODE = 255.4470
ARG_OF_PERICENTER = 100.7627
MEAN_ANOMALY   = 115.8921

EPHEMERIS_TYPE = 0
CLASSIFICATION_TYPE = U
NORAD_CAT_ID   = 66159
ELEMENT_SET_NO = 999
REV_AT_EPOCH   = 384
BSTAR          = -.26931907E-1
MEAN_MOTION_DOT = -.1920571E-1
MEAN_MOTION_DDOT = 0

CCSDS_OMM_VERS = 2.0
CREATION_DATE  = 
ORIGINATOR     = 

OBJECT_NAME    = STARLINK-35636
OBJECT_ID      = 2025-240Q
CENTER_NAME    = EARTH
REF_FRAME      = TEME
TIME_SYSTEM    = UTC
MEAN_ELEMENT_THEORY = SGP/SGP4

EPOCH          = 2025-11-11T06:00:02.000160
MEAN_MOTION    = 15.59505748
ECCENTRICITY   = .00012323
INCLINATION    = 53.1591
RA_OF_ASC_NODE = 255.4385
ARG_OF_PERICENTER = 98.8747
MEAN_ANOMALY   = 121.6138

EPHEMERIS_TYPE = 0
CLASSIFICATION_TYPE = U
NORAD_CAT_ID   = 66160
ELEMENT_SET_NO = 999
REV_AT_EPOCH   = 384
BSTAR          = -.26920339E-1
MEAN_MOTION_DOT = -.1919836E-1
MEAN_MOTION_DDOT = 0

CCSDS_OMM_VERS = 2.0
CREATION_DATE  = 
ORIGINATOR     = 

OBJECT_NAME    = STARLINK-35635
OBJECT_ID      = 2025-240R
CENTER_NAME    = EARTH
REF_FRAME      = TEME
TIME_SYSTEM    = UTC
MEAN_ELEMENT_THEORY = SGP/SGP4

EPOCH          = 2025-11-11T06:00:02.000160
MEAN_MOTION    = 15.59496834
ECCENTRICITY   = .00014376
INCLINATION    = 53.1592
RA_OF_ASC_NODE = 255.4424
ARG_OF_PERICENTER = 100.1098
MEAN_ANOMALY   = 118.4615

EPHEMERIS_TYPE = 0
CLASSIFICATION_TYPE = U
NORAD_CAT_ID   = 66161
ELEMENT_SET_NO = 999
REV_AT_EPOCH   = 384
BSTAR          = -.26680994E-1
MEAN_MOTION_DOT = -.1904329E-1
MEAN_MOTION_DDOT = 0

CCSDS_OMM_VERS = 2.0
CREATION_DATE  = 
ORIGINATOR     = 

OBJECT_NAME    = STARLINK-35633
OBJECT_ID      = 2025-240S
CENTER_NAME    = EARTH
REF_FRAME      = TEME
TIME_SYSTEM    = UTC
MEAN_ELEMENT_THEORY = SGP/SGP4

EPOCH          = 2025-11-11T06:00:02.000160
MEAN_MOTION    = 15.69113443
ECCENTRICITY   = .00011205
INCLINATION    = 53.1590
RA_OF_ASC_NODE = 255.3604
ARG_OF_PERICENTER = 91.6646
MEAN_ANOMALY   = 167.5215

EPHEMERIS_TYPE = 0
CLASSIFICATION_TYPE = U
NORAD_CAT_ID   = 66162
ELEMENT_SET_NO = 999
REV_AT_EPOCH   = 384
BSTAR          = -.73466801E-2
MEAN_MOTION_DOT = -.790456E-2
MEAN_MOTION_DDOT = 0

